[{"OBJECT_NAME":"SKYSAT-A","OBJECT_ID":"2013-066C","EPOCH":"2026-03-14T22:17:07.597824","MEAN_MOTION":15.1239678,"ECCENTRICITY":0.00199479,"INCLINATION":97.3947,"RA_OF_ASC_NODE":126.3094,"ARG_OF_PERICENTER":281.0017,"MEAN_ANOMALY":78.897,"EPHEMERIS_TYPE":0,"CLASSIFICATION_TYPE":"U","NORAD_CAT_ID":39418,"ELEMENT_SET_NO":999,"REV_AT_EPOCH":67423,"BSTAR":0.00022157859,"MEAN_MOTION_DOT":3.8e-5,"MEAN_MOTION_DDOT":0},{"OBJECT_NAME":"SKYSAT-B","OBJECT_ID":"2014-037D","EPOCH":"2026-03-14T20:11:07.906272","MEAN_MOTION":14.87749231,"ECCENTRICITY":0.00046454,"INCLINATION":98.373,"RA_OF_ASC_NODE":27.5048,"ARG_OF_PERICENTER":213.1543,"MEAN_ANOMALY":146.9382,"EPHEMERIS_TYPE":0,"CLASSIFICATION_TYPE":"U","NORAD_CAT_ID":40072,"ELEMENT_SET_NO":999,"REV_AT_EPOCH":63193,"BSTAR":0.00020403639,"MEAN_MOTION_DOT":1.8e-5,"MEAN_MOTION_DDOT":0},{"OBJECT_NAME":"SKYSAT-C1","OBJECT_ID":"2016-040C","EPOCH":"2026-03-14T20:27:14.411232","MEAN_MOTION":15.34631154,"ECCENTRICITY":0.00031133,"INCLINATION":96.9697,"RA_OF_ASC_NODE":110.7361,"ARG_OF_PERICENTER":43.2426,"MEAN_ANOMALY":316.9062,"EPHEMERIS_TYPE":0,"CLASSIFICATION_TYPE":"U","NORAD_CAT_ID":41601,"ELEMENT_SET_NO":999,"REV_AT_EPOCH":54339,"BSTAR":0.00038608092,"MEAN_MOTION_DOT":0.00012891,"MEAN_MOTION_DDOT":0},{"OBJECT_NAME":"SKYSAT-C4","OBJECT_ID":"2016-058B","EPOCH":"2026-03-14T13:49:49.304640","MEAN_MOTION":15.45566489,"ECCENTRICITY":0.0001269,"INCLINATION":96.9288,"RA_OF_ASC_NODE":99.4611,"ARG_OF_PERICENTER":131.7607,"MEAN_ANOMALY":228.3752,"EPHEMERIS_TYPE":0,"CLASSIFICATION_TYPE":"U","NORAD_CAT_ID":41771,"ELEMENT_SET_NO":999,"REV_AT_EPOCH":53084,"BSTAR":0.00046836754,"MEAN_MOTION_DOT":0.00022462,"MEAN_MOTION_DDOT":0},{"OBJECT_NAME":"SKYSAT-C5","OBJECT_ID":"2016-058C","EPOCH":"2026-03-14T20:20:39.215040","MEAN_MOTION":15.34111302,"ECCENTRICITY":3.76e-5,"INCLINATION":97.0612,"RA_OF_ASC_NODE":118.6898,"ARG_OF_PERICENTER":100.9587,"MEAN_ANOMALY":259.1699,"EPHEMERIS_TYPE":0,"CLASSIFICATION_TYPE":"U","NORAD_CAT_ID":41772,"ELEMENT_SET_NO":999,"REV_AT_EPOCH":52928,"BSTAR":0.00034481888,"MEAN_MOTION_DOT":0.00011313,"MEAN_MOTION_DDOT":0},{"OBJECT_NAME":"SKYSAT-C2","OBJECT_ID":"2016-058D","EPOCH":"2026-03-14T15:32:09.166848","MEAN_MOTION":15.3985085,"ECCENTRICITY":0.00046648,"INCLINATION":97.0277,"RA_OF_ASC_NODE":99.4011,"ARG_OF_PERICENTER":57.5399,"MEAN_ANOMALY":302.6298,"EPHEMERIS_TYPE":0,"CLASSIFICATION_TYPE":"U","NORAD_CAT_ID":41773,"ELEMENT_SET_NO":999,"REV_AT_EPOCH":53049,"BSTAR":0.00043415833,"MEAN_MOTION_DOT":0.00017182,"MEAN_MOTION_DDOT":0},{"OBJECT_NAME":"SKYSAT-C3","OBJECT_ID":"2016-058E","EPOCH":"2026-03-14T14:22:13.977696","MEAN_MOTION":15.48568039,"ECCENTRICITY":0.00017528,"INCLINATION":96.9177,"RA_OF_ASC_NODE":108.2625,"ARG_OF_PERICENTER":113.2146,"MEAN_ANOMALY":246.929,"EPHEMERIS_TYPE":0,"CLASSIFICATION_TYPE":"U","NORAD_CAT_ID":41774,"ELEMENT_SET_NO":999,"REV_AT_EPOCH":53145,"BSTAR":0.00053780961,"MEAN_MOTION_DOT":0.00028643,"MEAN_MOTION_DDOT":0},{"OBJECT_NAME":"SKYSAT-C11","OBJECT_ID":"2017-068A","EPOCH":"2026-03-14T22:29:35.989440","MEAN_MOTION":15.52788202,"ECCENTRICITY":4.288e-5,"INCLINATION":97.4205,"RA_OF_ASC_NODE":219.0972,"ARG_OF_PERICENTER":83.3965,"MEAN_ANOMALY":276.7337,"EPHEMERIS_TYPE":0,"CLASSIFICATION_TYPE":"U","NORAD_CAT_ID":42987,"ELEMENT_SET_NO":999,"REV_AT_EPOCH":46859,"BSTAR":0.00065186806,"MEAN_MOTION_DOT":0.00040383,"MEAN_MOTION_DDOT":0},{"OBJECT_NAME":"SKYSAT-C10","OBJECT_ID":"2017-068B","EPOCH":"2026-03-14T21:20:33.873216","MEAN_MOTION":15.32819988,"ECCENTRICITY":0.0001006,"INCLINATION":97.4338,"RA_OF_ASC_NODE":210.0259,"ARG_OF_PERICENTER":95.169,"MEAN_ANOMALY":264.9666,"EPHEMERIS_TYPE":0,"CLASSIFICATION_TYPE":"U","NORAD_CAT_ID":42988,"ELEMENT_SET_NO":999,"REV_AT_EPOCH":46790,"BSTAR":0.00043533374,"MEAN_MOTION_DOT":0.0001373,"MEAN_MOTION_DDOT":0},{"OBJECT_NAME":"SKYSAT-C9","OBJECT_ID":"2017-068C","EPOCH":"2026-03-14T21:57:09.261792","MEAN_MOTION":15.3907801,"ECCENTRICITY":0.00099242,"INCLINATION":97.4263,"RA_OF_ASC_NODE":210.1326,"ARG_OF_PERICENTER":115.7701,"MEAN_ANOMALY":244.457,"EPHEMERIS_TYPE":0,"CLASSIFICATION_TYPE":"U","NORAD_CAT_ID":42989,"ELEMENT_SET_NO":999,"REV_AT_EPOCH":46824,"BSTAR":0.00049472,"MEAN_MOTION_DOT":0.00019123,"MEAN_MOTION_DDOT":0},{"OBJECT_NAME":"SKYSAT-C8","OBJECT_ID":"2017-068D","EPOCH":"2026-03-14T22:21:45.418752","MEAN_MOTION":15.34925793,"ECCENTRICITY":0.00012681,"INCLINATION":97.4356,"RA_OF_ASC_NODE":209.5255,"ARG_OF_PERICENTER":97.5862,"MEAN_ANOMALY":262.5526,"EPHEMERIS_TYPE":0,"CLASSIFICATION_TYPE":"U","NORAD_CAT_ID":42990,"ELEMENT_SET_NO":999,"REV_AT_EPOCH":46784,"BSTAR":0.00045684975,"MEAN_MOTION_DOT":0.00015408,"MEAN_MOTION_DDOT":0},{"OBJECT_NAME":"SKYSAT-C7","OBJECT_ID":"2017-068E","EPOCH":"2026-03-14T22:07:43.307328","MEAN_MOTION":15.34877851,"ECCENTRICITY":0.00072692,"INCLINATION":97.4367,"RA_OF_ASC_NODE":210.4986,"ARG_OF_PERICENTER":87.6996,"MEAN_ANOMALY":272.508,"EPHEMERIS_TYPE":0,"CLASSIFICATION_TYPE":"U","NORAD_CAT_ID":42991,"ELEMENT_SET_NO":999,"REV_AT_EPOCH":46790,"BSTAR":0.00046624953,"MEAN_MOTION_DOT":0.00015715,"MEAN_MOTION_DDOT":0},{"OBJECT_NAME":"SKYSAT-C6","OBJECT_ID":"2017-068F","EPOCH":"2026-03-14T22:13:23.606688","MEAN_MOTION":15.32638763,"ECCENTRICITY":0.00037436,"INCLINATION":97.4401,"RA_OF_ASC_NODE":210.7723,"ARG_OF_PERICENTER":115.512,"MEAN_ANOMALY":244.6509,"EPHEMERIS_TYPE":0,"CLASSIFICATION_TYPE":"U","NORAD_CAT_ID":42992,"ELEMENT_SET_NO":999,"REV_AT_EPOCH":46787,"BSTAR":0.00044996858,"MEAN_MOTION_DOT":0.00014116,"MEAN_MOTION_DDOT":0},{"OBJECT_NAME":"SKYSAT-C12","OBJECT_ID":"2018-099AR","EPOCH":"2026-03-14T22:30:11.654496","MEAN_MOTION":15.45814282,"ECCENTRICITY":0.00059431,"INCLINATION":96.9377,"RA_OF_ASC_NODE":101.1213,"ARG_OF_PERICENTER":125.0761,"MEAN_ANOMALY":235.1048,"EPHEMERIS_TYPE":0,"CLASSIFICATION_TYPE":"U","NORAD_CAT_ID":43797,"ELEMENT_SET_NO":999,"REV_AT_EPOCH":40728,"BSTAR":0.00042715562,"MEAN_MOTION_DOT":0.0002066,"MEAN_MOTION_DDOT":0},{"OBJECT_NAME":"SKYSAT-C13","OBJECT_ID":"2018-099AW","EPOCH":"2026-03-14T20:49:17.312736","MEAN_MOTION":15.77762937,"ECCENTRICITY":0.00046808,"INCLINATION":96.94,"RA_OF_ASC_NODE":121.5175,"ARG_OF_PERICENTER":183.807,"MEAN_ANOMALY":176.3163,"EPHEMERIS_TYPE":0,"CLASSIFICATION_TYPE":"U","NORAD_CAT_ID":43802,"ELEMENT_SET_NO":999,"REV_AT_EPOCH":40798,"BSTAR":0.00065635393,"MEAN_MOTION_DOT":0.00110919,"MEAN_MOTION_DDOT":0},{"OBJECT_NAME":"FLOCK 4Q-16","OBJECT_ID":"2023-174R","EPOCH":"2026-03-14T19:23:04.351200","MEAN_MOTION":15.45071157,"ECCENTRICITY":0.00081344,"INCLINATION":97.3857,"RA_OF_ASC_NODE":160.023,"ARG_OF_PERICENTER":143.0553,"MEAN_ANOMALY":217.1258,"EPHEMERIS_TYPE":0,"CLASSIFICATION_TYPE":"U","NORAD_CAT_ID":58271,"ELEMENT_SET_NO":999,"REV_AT_EPOCH":13098,"BSTAR":0.00068824498,"MEAN_MOTION_DOT":0.00032566,"MEAN_MOTION_DDOT":0}]
