SKYSAT-A                
1 39418U 13066C   26073.92856016  .00003800  00000+0  22158-3 0  9997
2 39418  97.3947 126.3094 0019947 281.0017  78.8970 15.12396780674233
SKYSAT-B                
1 40072U 14037D   26073.84106373  .00001800  00000+0  20404-3 0  9999
2 40072  98.3730  27.5048 0004645 213.1543 146.9382 14.87749231631930
SKYSAT-C1               
1 41601U 16040C   26073.85225013  .00012891  00000+0  38608-3 0  9995
2 41601  96.9697 110.7361 0003113  43.2426 316.9062 15.34631154543392
SKYSAT-C4               
1 41771U 16058B   26073.57626510  .00022462  00000+0  46837-3 0  9996
2 41771  96.9288  99.4611 0001269 131.7607 228.3752 15.45566489530849
SKYSAT-C5               
1 41772U 16058C   26073.84767610  .00011313  00000+0  34482-3 0  9990
2 41772  97.0612 118.6898 0000376 100.9587 259.1699 15.34111302529283
SKYSAT-C2               
1 41773U 16058D   26073.64732832  .00017182  00000+0  43416-3 0  9994
2 41773  97.0277  99.4011 0004664  57.5399 302.6298 15.39850850530493
SKYSAT-C3               
1 41774U 16058E   26073.59877289  .00028643  00000+0  53781-3 0  9995
2 41774  96.9177 108.2625 0001752 113.2146 246.9290 15.48568039531450
SKYSAT-C11              
1 42987U 17068A   26073.93722210  .00040383  00000+0  65187-3 0  9993
2 42987  97.4205 219.0972 0000428  83.3965 276.7337 15.52788202468594
SKYSAT-C10              
1 42988U 17068B   26073.88928094  .00013730  00000+0  43533-3 0  9993
2 42988  97.4338 210.0259 0001006  95.1690 264.9666 15.32819988467902
SKYSAT-C9               
1 42989U 17068C   26073.91469053  .00019123  00000+0  49472-3 0  9993
2 42989  97.4263 210.1326 0009924 115.7701 244.4570 15.39078010468240
SKYSAT-C8               
1 42990U 17068D   26073.93177568  .00015408  00000+0  45685-3 0  9998
2 42990  97.4356 209.5255 0001268  97.5862 262.5526 15.34925793467847
SKYSAT-C7               
1 42991U 17068E   26073.92202902  .00015715  00000+0  46625-3 0  9995
2 42991  97.4367 210.4986 0007269  87.6996 272.5080 15.34877851467901
SKYSAT-C6               
1 42992U 17068F   26073.92596767  .00014116  00000+0  44997-3 0  9995
2 42992  97.4401 210.7723 0003743 115.5120 244.6509 15.32638763467873
SKYSAT-C12              
1 43797U 18099AR  26073.93763489  .00020660  00000+0  42716-3 0  9990
2 43797  96.9377 101.1213 0005943 125.0761 235.1048 15.45814282407289
SKYSAT-C13              
1 43802U 18099AW  26073.86756149  .00110919  00000+0  65635-3 0  9996
2 43802  96.9400 121.5175 0004680 183.8070 176.3163 15.77762937407983
FLOCK 4Q-16             
1 58271U 23174R   26073.80768925  .00032566  00000+0  68824-3 0  9995
2 58271  97.3857 160.0230 0008134 143.0553 217.1258 15.45071157130986
